[{"OBJECT_NAME":"CONTECSAT-1","OBJECT_ID":"2024-043V","EPOCH":"2026-03-09T22:02:35.535840","MEAN_MOTION":15.34615346,"ECCENTRICITY":0.00100896,"INCLINATION":97.5476,"RA_OF_ASC_NODE":207.3735,"ARG_OF_PERICENTER":223.9905,"MEAN_ANOMALY":136.0535,"EPHEMERIS_TYPE":0,"CLASSIFICATION_TYPE":"U","NORAD_CAT_ID":59117,"ELEMENT_SET_NO":999,"REV_AT_EPOCH":11201,"BSTAR":0.0004369392,"MEAN_MOTION_DOT":0.00014607,"MEAN_MOTION_DDOT":0},{"OBJECT_NAME":"STARLINK-31793","OBJECT_ID":"2024-112R","EPOCH":"2026-03-09T10:29:55.180608","MEAN_MOTION":15.30197483,"ECCENTRICITY":0.00012851,"INCLINATION":53.1612,"RA_OF_ASC_NODE":79.4743,"ARG_OF_PERICENTER":88.3571,"MEAN_ANOMALY":271.7577,"EPHEMERIS_TYPE":0,"CLASSIFICATION_TYPE":"U","NORAD_CAT_ID":60053,"ELEMENT_SET_NO":999,"REV_AT_EPOCH":9855,"BSTAR":3.8984444e-5,"MEAN_MOTION_DOT":7.95e-6,"MEAN_MOTION_DDOT":0}]
